0 FENGYUN 1C DEB
1 37708U 99025ELZ 13280.41619243  .00002810  00000-0  64166-3 0  1106
2 37708 098.2208 134.5417 0381503 116.4473 247.6313 14.20040688284516
0 FENGYUN 1C DEB
1 37708U 99025ELZ 13287.39180094  .00001434  00000-0  33340-3 0  1119
2 37708 098.2600 140.9572 0381009 094.2145 270.1666 14.20073023285506
0 FENGYUN 1C DEB
1 37708U 99025ELZ 13291.40797034  .00005778  00000-0  12739-2 0  1128
2 37708 098.2809 144.7186 0387563 081.7921 282.9205 14.20127345286074
0 FENGYUN 1C DEB
1 37708U 99025ELZ 13293.38067503  .00004312  00000-0  98468-3 0  1136
2 37708 098.2532 146.5255 0379402 076.8036 287.5897 14.20137670286350
